start=new Date('2023-04-30T00:00:00.000Z').valueOf();
sats=[{"ARG_OF_PERICENTER":"84.2810","EPHEMERIS_TYPE":"0","OBJECT_ID":"2021-005M","BSTAR":"0.00144870000000","RCS_SIZE":"LARGE","TLE_LINE1":"1 47360U 21005M   23119.76696883  .00021358  00000-0  14487-2 0  9992","SEMIMAJOR_AXIS":"6925.372","GP_ID":"230935520","REF_FRAME":"TEME","MEAN_MOTION_DOT":"0.00021358","FILE":"3896623","OBJECT_TYPE":"PAYLOAD","CLASSIFICATION_TYPE":"U","MEAN_ANOMALY":"275.8346","REV_AT_EPOCH":"12604","MEAN_MOTION_DDOT":"0.0000000000000","RA_OF_ASC_NODE":"37.4580","MEAN_MOTION":"15.06392364","INCLINATION":"53.0546","NORAD_CAT_ID":"47360","SITE":"AFETR","ECCENTRICITY":"0.00014600","PERIOD":"95.593","PERIAPSIS":"546.226","LAUNCH_DATE":"2021-01-20","CENTER_NAME":"EARTH","MEAN_ELEMENT_THEORY":"SGP4","APOAPSIS":"548.248","OBJECT_NAME":"STARLINK-2070","TIME_SYSTEM":"UTC","TLE_LINE2":"2 47360  53.0546  37.4580 0001460  84.2810 275.8346 15.06392364126043","EPOCH":"2023-04-29T18:24:26.106912","DECAY_DATE":null,"ELEMENT_SET_NO":"999","COUNTRY_CODE":"US"},{"OBJECT_ID":"2021-005N","EPHEMERIS_TYPE":"0","ARG_OF_PERICENTER":"110.9877","TLE_LINE1":"1 47361U 21005N   23119.09382430  .00004103  00000-0  29407-3 0  9997","RCS_SIZE":"LARGE","BSTAR":"0.00029407000000","MEAN_ANOMALY":"249.1242","CLASSIFICATION_TYPE":"U","GP_ID":"230925899","SEMIMAJOR_AXIS":"6925.306","FILE":"3896517","OBJECT_TYPE":"PAYLOAD","MEAN_MOTION_DOT":"0.00004103","REF_FRAME":"TEME","NORAD_CAT_ID":"47361","INCLINATION":"53.0559","MEAN_MOTION_DDOT":"0.0000000000000","REV_AT_EPOCH":"12586","RA_OF_ASC_NODE":"45.4794","MEAN_MOTION":"15.06413829","PERIAPSIS":"546.331","SITE":"AFETR","PERIOD":"95.591","ECCENTRICITY":"0.00012130","MEAN_ELEMENT_THEORY":"SGP4","TLE_LINE2":"2 47361  53.0559  45.4794 0001213 110.9877 249.1242 15.06413829125868","TIME_SYSTEM":"UTC","APOAPSIS":"548.011","OBJECT_NAME":"STARLINK-2071","LAUNCH_DATE":"2021-01-20","CENTER_NAME":"EARTH","DECAY_DATE":null,"EPOCH":"2023-04-29T02:15:06.419520","COUNTRY_CODE":"US","ELEMENT_SET_NO":"999"},{"RCS_SIZE":"LARGE","BSTAR":"0.00024869000000","TLE_LINE1":"1 47362U 21005P   23119.27167236  .00003426  00000-0  24869-3 0  9997","ARG_OF_PERICENTER":"100.4072","OBJECT_ID":"2021-005P","EPHEMERIS_TYPE":"0","MEAN_MOTION_DDOT":"0.0000000000000","REV_AT_EPOCH":"12547","RA_OF_ASC_NODE":"74.6789","MEAN_MOTION":"15.06410220","NORAD_CAT_ID":"47362","INCLINATION":"53.0543","GP_ID":"230926150","SEMIMAJOR_AXIS":"6925.317","FILE":"3896517","OBJECT_TYPE":"PAYLOAD","REF_FRAME":"TEME","MEAN_MOTION_DOT":"0.00003426","MEAN_ANOMALY":"259.7076","CLASSIFICATION_TYPE":"U","LAUNCH_DATE":"2021-01-20","CENTER_NAME":"EARTH","MEAN_ELEMENT_THEORY":"SGP4","TLE_LINE2":"2 47362  53.0543  74.6789 0001403 100.4072 259.7076 15.06410220125473","TIME_SYSTEM":"UTC","APOAPSIS":"548.154","OBJECT_NAME":"STARLINK-2076","SITE":"AFETR","PERIOD":"95.591","ECCENTRICITY":"0.00014030","PERIAPSIS":"546.211","ELEMENT_SET_NO":"999","COUNTRY_CODE":"US","EPOCH":"2023-04-29T06:31:12.491904","DECAY_DATE":null},{"TLE_LINE1":"1 47363U 21005Q   23119.87248019  .00006539  00000-0  45760-3 0  9994","BSTAR":"0.00045760000000","RCS_SIZE":"LARGE","EPHEMERIS_TYPE":"0","OBJECT_ID":"2021-005Q","ARG_OF_PERICENTER":"90.0650","INCLINATION":"53.0541","NORAD_CAT_ID":"47363","RA_OF_ASC_NODE":"71.9849","MEAN_MOTION":"15.06389728","REV_AT_EPOCH":"12556","MEAN_MOTION_DDOT":"0.0000000000000","CLASSIFICATION_TYPE":"U","MEAN_ANOMALY":"270.0496","REF_FRAME":"TEME","MEAN_MOTION_DOT":"0.00006539","FILE":"3896623","OBJECT_TYPE":"PAYLOAD","SEMIMAJOR_AXIS":"6925.380","GP_ID":"230935529","APOAPSIS":"548.199","OBJECT_NAME":"STARLINK-2077","TIME_SYSTEM":"UTC","TLE_LINE2":"2 47363  53.0541  71.9849 0001377  90.0650 270.0496 15.06389728125565","MEAN_ELEMENT_THEORY":"SGP4","CENTER_NAME":"EARTH","LAUNCH_DATE":"2021-01-20","PERIAPSIS":"546.291","ECCENTRICITY":"0.00013770","PERIOD":"95.593","SITE":"AFETR","COUNTRY_CODE":"US","ELEMENT_SET_NO":"999","DECAY_DATE":null,"EPOCH":"2023-04-29T20:56:22.288416"},{"ARG_OF_PERICENTER":"97.9011","OBJECT_ID":"2021-005T","EPHEMERIS_TYPE":"0","BSTAR":"0.00102100000000","RCS_SIZE":"LARGE","TLE_LINE1":"1 47366U 21005T   23119.16845470  .00014964  00000-0  10210-2 0  9995","SEMIMAJOR_AXIS":"6925.311","GP_ID":"230927132","REF_FRAME":"TEME","MEAN_MOTION_DOT":"0.00014964","FILE":"3896517","OBJECT_TYPE":"PAYLOAD","CLASSIFICATION_TYPE":"U","MEAN_ANOMALY":"262.2104","REV_AT_EPOCH":"12545","MEAN_MOTION_DDOT":"0.0000000000000","MEAN_MOTION":"15.06412266","RA_OF_ASC_NODE":"75.1429","INCLINATION":"53.0535","NORAD_CAT_ID":"47366","SITE":"AFETR","ECCENTRICITY":"0.00011090","PERIOD":"95.591","PERIAPSIS":"546.408","LAUNCH_DATE":"2021-01-20","CENTER_NAME":"EARTH","MEAN_ELEMENT_THEORY":"SGP4","APOAPSIS":"547.944","OBJECT_NAME":"STARLINK-2081","TLE_LINE2":"2 47366  53.0535  75.1429 0001109  97.9011 262.2104 15.06412266125452","TIME_SYSTEM":"UTC","EPOCH":"2023-04-29T04:02:34.486080","DECAY_DATE":null,"ELEMENT_SET_NO":"999","COUNTRY_CODE":"US"},{"EPHEMERIS_TYPE":"0","OBJECT_ID":"2021-005U","ARG_OF_PERICENTER":"90.3302","TLE_LINE1":"1 47367U 21005U   23119.85773466  .00000739  00000-0  68483-4 0  9999","BSTAR":"0.00006848300000","RCS_SIZE":"LARGE","CLASSIFICATION_TYPE":"U","MEAN_ANOMALY":"269.7880","MEAN_MOTION_DOT":"0.00000739","REF_FRAME":"TEME","OBJECT_TYPE":"PAYLOAD","FILE":"3896623","SEMIMAJOR_AXIS":"6925.316","GP_ID":"230935524","INCLINATION":"53.0539","NORAD_CAT_ID":"47367","MEAN_MOTION":"15.06410663","RA_OF_ASC_NODE":"72.0524","REV_AT_EPOCH":"12556","MEAN_MOTION_DDOT":"0.0000000000000","PERIAPSIS":"546.011","ECCENTRICITY":"0.00016890","PERIOD":"95.591","SITE":"AFETR","APOAPSIS":"548.351","OBJECT_NAME":"STARLINK-2082","TLE_LINE2":"2 47367  53.0539  72.0524 0001689  90.3302 269.7880 15.06410663125566","TIME_SYSTEM":"UTC","MEAN_ELEMENT_THEORY":"SGP4","CENTER_NAME":"EARTH","LAUNCH_DATE":"2021-01-20","DECAY_DATE":null,"EPOCH":"2023-04-29T20:35:08.274624","COUNTRY_CODE":"US","ELEMENT_SET_NO":"999"},{"BSTAR":"0.00015121000000","RCS_SIZE":"LARGE","TLE_LINE1":"1 47368U 21005V   23119.85035317  .00001972  00000-0  15121-3 0  9996","ARG_OF_PERICENTER":"93.6622","OBJECT_ID":"2021-005V","EPHEMERIS_TYPE":"0","RA_OF_ASC_NODE":"72.0831","MEAN_MOTION":"15.06417868","REV_AT_EPOCH":"12650","MEAN_MOTION_DDOT":"0.0000000000000","INCLINATION":"53.0531","NORAD_CAT_ID":"47368","REF_FRAME":"TEME","MEAN_MOTION_DOT":"0.00001972","OBJECT_TYPE":"PAYLOAD","FILE":"3896623","SEMIMAJOR_AXIS":"6925.294","GP_ID":"230935526","CLASSIFICATION_TYPE":"U","MEAN_ANOMALY":"266.4598","CENTER_NAME":"EARTH","LAUNCH_DATE":"2021-01-20","OBJECT_NAME":"STARLINK-2084","APOAPSIS":"548.558","TLE_LINE2":"2 47368  53.0531  72.0831 0002020  93.6622 266.4598 15.06417868126500","TIME_SYSTEM":"UTC","MEAN_ELEMENT_THEORY":"SGP4","ECCENTRICITY":"0.00020200","PERIOD":"95.591","SITE":"AFETR","PERIAPSIS":"545.760","ELEMENT_SET_NO":"999","COUNTRY_CODE":"US","EPOCH":"2023-04-29T20:24:30.513888","DECAY_DATE":null},{"ECCENTRICITY":"0.00018050","PERIOD":"95.593","SITE":"AFETR","PERIAPSIS":"545.999","CENTER_NAME":"EARTH","LAUNCH_DATE":"2021-01-20","OBJECT_NAME":"STARLINK-2085","APOAPSIS":"548.499","TIME_SYSTEM":"UTC","TLE_LINE2":"2 47369  53.0556  52.3507 0001805  82.9522 277.1672 15.06388478126796","MEAN_ELEMENT_THEORY":"SGP4","EPOCH":"2023-04-29T18:55:35.465952","DECAY_DATE":null,"ELEMENT_SET_NO":"999","COUNTRY_CODE":"US","ARG_OF_PERICENTER":"82.9522","OBJECT_ID":"2021-005W","EPHEMERIS_TYPE":"0","BSTAR":"0.00042171000000","RCS_SIZE":"LARGE","TLE_LINE1":"1 47369U 21005W   23119.78860493  .00006003  00000-0  42171-3 0  9995","MEAN_MOTION_DOT":"0.00006003","REF_FRAME":"TEME","OBJECT_TYPE":"PAYLOAD","FILE":"3896712","SEMIMAJOR_AXIS":"6925.384","GP_ID":"230937740","CLASSIFICATION_TYPE":"U","MEAN_ANOMALY":"277.1672","RA_OF_ASC_NODE":"52.3507","MEAN_MOTION":"15.06388478","REV_AT_EPOCH":"12679","MEAN_MOTION_DDOT":"0.0000000000000","INCLINATION":"53.0556","NORAD_CAT_ID":"47369"},{"RCS_SIZE":"LARGE","BSTAR":"-0.00001147100000","TLE_LINE1":"1 47370U 21005X   23119.74715258 -.00000453  00000-0 -11471-4 0  9996","ARG_OF_PERICENTER":"88.8020","EPHEMERIS_TYPE":"0","OBJECT_ID":"2021-005X","RA_OF_ASC_NODE":"32.5467","MEAN_MOTION":"15.06409634","MEAN_MOTION_DDOT":"0.0000000000000","REV_AT_EPOCH":"12611","NORAD_CAT_ID":"47370","INCLINATION":"53.0546","OBJECT_TYPE":"PAYLOAD","FILE":"3896630","REF_FRAME":"TEME","MEAN_MOTION_DOT":"-0.00000453","GP_ID":"230936038","SEMIMAJOR_AXIS":"6925.319","MEAN_ANOMALY":"271.3190","CLASSIFICATION_TYPE":"U","CENTER_NAME":"EARTH","LAUNCH_DATE":"2021-01-20","TLE_LINE2":"2 47370  53.0546  32.5467 0001933  88.8020 271.3190 15.06409634126117","TIME_SYSTEM":"UTC","OBJECT_NAME":"STARLINK-2086","APOAPSIS":"548.523","MEAN_ELEMENT_THEORY":"SGP4","PERIOD":"95.592","ECCENTRICITY":"0.00019330","SITE":"AFETR","PERIAPSIS":"545.845","ELEMENT_SET_NO":"999","COUNTRY_CODE":"US","EPOCH":"2023-04-29T17:55:53.982912","DECAY_DATE":null},{"GP_ID":"230935538","SEMIMAJOR_AXIS":"6925.341","OBJECT_TYPE":"PAYLOAD","FILE":"3896630","MEAN_MOTION_DOT":"0.00002551","REF_FRAME":"TEME","MEAN_ANOMALY":"276.4739","CLASSIFICATION_TYPE":"U","MEAN_MOTION_DDOT":"0.0000000000000","REV_AT_EPOCH":"12556","RA_OF_ASC_NODE":"72.0173","MEAN_MOTION":"15.06402318","NORAD_CAT_ID":"47371","INCLINATION":"53.0529","ARG_OF_PERICENTER":"83.6447","EPHEMERIS_TYPE":"0","OBJECT_ID":"2021-005Y","RCS_SIZE":"LARGE","BSTAR":"0.00019009000000","TLE_LINE1":"1 47371U 21005Y   23119.86511240  .00002551  00000-0  19009-3 0  9998","EPOCH":"2023-04-29T20:45:45.711360","DECAY_DATE":null,"ELEMENT_SET_NO":"999","COUNTRY_CODE":"US","SITE":"AFETR","PERIOD":"95.592","ECCENTRICITY":"0.00017370","PERIAPSIS":"546.004","LAUNCH_DATE":"2021-01-20","CENTER_NAME":"EARTH","MEAN_ELEMENT_THEORY":"SGP4","TIME_SYSTEM":"UTC","TLE_LINE2":"2 47371  53.0529  72.0173 0001737  83.6447 276.4739 15.06402318125565","APOAPSIS":"548.409","OBJECT_NAME":"STARLINK-2088"}];
